LEMUR-2-DEMBITZ         
1 42842U 17042T   26068.47492167  .00020231  00000+0  76561-3 0  9991
2 42842  97.3807 250.9241 0006961  17.1421 343.0051 15.26947128473114
STARLINK-36374          
1 67417U 26005P   26068.48251012  .00023580  00000+0  86364-3 0  9990
2 67417  42.9945 239.2498 0000668 289.9710  70.1069 15.27580778  8666
